{
  "type": "FeatureCollection",
  "features": [
    {
      "type": "Feature",
      "properties": {
        "norad_id": 29994,
        "name": "FENGYUN 1C DEB",
        "group": "fengyun-1c-debris",
        "lat": 80.94226109870552,
        "lon": -87.2377051536202,
        "alt_km": 938.7827377497097,
        "timestamp": "2025-12-09T05:43:20.998747+00:00",
        "meta_object_name": "FENGYUN 1C DEB",
        "meta_object_id": "1999-025LU",
        "meta_epoch": "2025-12-08T16:07:02.784864",
        "meta_mean_motion": 14.02641051,
        "meta_eccentricity": 0.012951,
        "meta_inclination": 98.8298,
        "meta_ra_of_asc_node": 15.0415,
        "meta_arg_of_pericenter": 225.0213,
        "meta_mean_anomaly": 247.2265,
        "meta_ephemeris_type": 0,
        "meta_classification_type": "U",
        "meta_norad_cat_id": 29994,
        "meta_element_set_no": 999,
        "meta_rev_at_epoch": 96669,
        "meta_bstar": 0.00035235,
        "meta_mean_motion_dot": 5.42e-06,
        "meta_mean_motion_ddot": 0,
        "tle_line1": "1 29994U 99025LU  25342.67156001  .00000542  00000+0  35235-3 0  9991",
        "tle_line2": "2 29994  98.8298  15.0415 0129510 225.0213 247.2265 14.02641051966696"
      },
      "geometry": {
        "type": "Point",
        "coordinates": [
          -87.2377051536202,
          80.94226109870552
        ]
      }
    },
    {
      "type": "Feature",
      "properties": {
        "norad_id": 29996,
        "name": "FENGYUN 1C DEB",
        "group": "fengyun-1c-debris",
        "lat": -10.236519569817064,
        "lon": -161.19504820047297,
        "alt_km": 868.6148755730419,
        "timestamp": "2025-12-09T05:43:20.998758+00:00",
        "meta_object_name": "FENGYUN 1C DEB",
        "meta_object_id": "1999-025LW",
        "meta_epoch": "2025-12-08T15:45:16.576704",
        "meta_mean_motion": 14.09380928,
        "meta_eccentricity": 0.0132003,
        "meta_inclination": 99.3031,
        "meta_ra_of_asc_node": 19.9002,
        "meta_arg_of_pericenter": 99.304,
        "meta_mean_anomaly": 18.1416,
        "meta_ephemeris_type": 0,
        "meta_classification_type": "U",
        "meta_norad_cat_id": 29996,
        "meta_element_set_no": 999,
        "meta_rev_at_epoch": 96079,
        "meta_bstar": 0.0024808,
        "meta_mean_motion_dot": 4.646e-05,
        "meta_mean_motion_ddot": 0,
        "tle_line1": "1 29996U 99025LW  25342.65644186  .00004646  00000+0  24808-2 0  9999",
        "tle_line2": "2 29996  99.3031  19.9002 0132003  99.3040  18.1416 14.09380928960793"
      },
      "geometry": {
        "type": "Point",
        "coordinates": [
          -161.19504820047297,
          -10.236519569817064
        ]
      }
    },
    {
      "type": "Feature",
      "properties": {
        "norad_id": 29997,
        "name": "FENGYUN 1C DEB",
        "group": "fengyun-1c-debris",
        "lat": -49.9014950553018,
        "lon": 4.484665938189068,
        "alt_km": 845.8675686508695,
        "timestamp": "2025-12-09T05:43:20.998768+00:00",
        "meta_object_name": "FENGYUN 1C DEB",
        "meta_object_id": "1999-025LX",
        "meta_epoch": "2025-12-08T18:48:54.487008",
        "meta_mean_motion": 14.00864961,
        "meta_eccentricity": 0.0080311,
        "meta_inclination": 98.8811,
        "meta_ra_of_asc_node": 353.3416,
        "meta_arg_of_pericenter": 338.3728,
        "meta_mean_anomaly": 200.6969,
        "meta_ephemeris_type": 0,
        "meta_classification_type": "U",
        "meta_norad_cat_id": 29997,
        "meta_element_set_no": 999,
        "meta_rev_at_epoch": 96334,
        "meta_bstar": 0.0013108,
        "meta_mean_motion_dot": 1.971e-05,
        "meta_mean_motion_ddot": 0,
        "tle_line1": "1 29997U 99025LX  25342.78396397  .00001971  00000+0  13108-2 0  9991",
        "tle_line2": "2 29997  98.8811 353.3416 0080311 338.3728 200.6969 14.00864961963341"
      },
      "geometry": {
        "type": "Point",
        "coordinates": [
          4.484665938189068,
          -49.9014950553018
        ]
      }
    },
    {
      "type": "Feature",
      "properties": {
        "norad_id": 29998,
        "name": "FENGYUN 1C DEB",
        "group": "fengyun-1c-debris",
        "lat": -31.49167974875073,
        "lon": -142.36083385082753,
        "alt_km": 803.2147934310478,
        "timestamp": "2025-12-09T05:43:20.998779+00:00",
        "meta_object_name": "FENGYUN 1C DEB",
        "meta_object_id": "1999-025LY",
        "meta_epoch": "2025-12-08T15:17:07.456704",
        "meta_mean_motion": 14.28519555,
        "meta_eccentricity": 0.0004688,
        "meta_inclination": 99.306,
        "meta_ra_of_asc_node": 42.7631,
        "meta_arg_of_pericenter": 313.3015,
        "meta_mean_anomaly": 46.7773,
        "meta_ephemeris_type": 0,
        "meta_classification_type": "U",
        "meta_norad_cat_id": 29998,
        "meta_element_set_no": 999,
        "meta_rev_at_epoch": 97816,
        "meta_bstar": 0.001422,
        "meta_mean_motion_dot": 3.516e-05,
        "meta_mean_motion_ddot": 0,
        "tle_line1": "1 29998U 99025LY  25342.63689186  .00003516  00000+0  14220-2 0  9990",
        "tle_line2": "2 29998  99.3060  42.7631 0004688 313.3015  46.7773 14.28519555978161"
      },
      "geometry": {
        "type": "Point",
        "coordinates": [
          -142.36083385082753,
          -31.49167974875073
        ]
      }
    },
    {
      "type": "Feature",
      "properties": {
        "norad_id": 29999,
        "name": "FENGYUN 1C DEB",
        "group": "fengyun-1c-debris",
        "lat": 70.55383732736392,
        "lon": -57.695379735895365,
        "alt_km": 756.4522796056526,
        "timestamp": "2025-12-09T05:43:20.998789+00:00",
        "meta_object_name": "FENGYUN 1C DEB",
        "meta_object_id": "1999-025LZ",
        "meta_epoch": "2025-12-08T13:01:04.751040",
        "meta_mean_motion": 14.20126347,
        "meta_eccentricity": 0.0189413,
        "meta_inclination": 98.576,
        "meta_ra_of_asc_node": 326.9331,
        "meta_arg_of_pericenter": 138.659,
        "meta_mean_anomaly": 339.432,
        "meta_ephemeris_type": 0,
        "meta_classification_type": "U",
        "meta_norad_cat_id": 29999,
        "meta_element_set_no": 999,
        "meta_rev_at_epoch": 97664,
        "meta_bstar": 0.00046547,
        "meta_mean_motion_dot": 1.145e-05,
        "meta_mean_motion_ddot": 0,
        "tle_line1": "1 29999U 99025LZ  25342.54241610  .00001145  00000+0  46547-3 0  9991",
        "tle_line2": "2 29999  98.5760 326.9331 0189413 138.6590 339.4320 14.20126347976646"
      },
      "geometry": {
        "type": "Point",
        "coordinates": [
          -57.695379735895365,
          70.55383732736392
        ]
      }
    },
    {
      "type": "Feature",
      "properties": {
        "norad_id": 30001,
        "name": "FENGYUN 1C DEB",
        "group": "fengyun-1c-debris",
        "lat": 29.006729406938703,
        "lon": -116.84860858144285,
        "alt_km": 741.4541807978057,
        "timestamp": "2025-12-09T05:43:20.998800+00:00",
        "meta_object_name": "FENGYUN 1C DEB",
        "meta_object_id": "1999-025MA",
        "meta_epoch": "2025-12-08T10:44:08.671776",
        "meta_mean_motion": 14.38474842,
        "meta_eccentricity": 0.00384866,
        "meta_inclination": 98.9593,
        "meta_ra_of_asc_node": 57.3081,
        "meta_arg_of_pericenter": 111.2706,
        "meta_mean_anomaly": 264.4507,
        "meta_ephemeris_type": 0,
        "meta_classification_type": "U",
        "meta_norad_cat_id": 30001,
        "meta_element_set_no": 999,
        "meta_rev_at_epoch": 97370,
        "meta_bstar": 0.0033639155,
        "meta_mean_motion_dot": 0.00010329,
        "meta_mean_motion_ddot": 0,
        "tle_line1": "1 30001U 99025MA  25342.44732259  .00010329  00000+0  33639-2 0  9991",
        "tle_line2": "2 30001  98.9593  57.3081 0038486 111.2706 264.4507 14.38474842973709"
      },
      "geometry": {
        "type": "Point",
        "coordinates": [
          -116.84860858144285,
          29.006729406938703
        ]
      }
    },
    {
      "type": "Feature",
      "properties": {
        "norad_id": 30003,
        "name": "FENGYUN 1C DEB",
        "group": "fengyun-1c-debris",
        "lat": -79.19477186791481,
        "lon": 75.77063320607387,
        "alt_km": 1025.876953916002,
        "timestamp": "2025-12-09T05:43:20.998811+00:00",
        "meta_object_name": "FENGYUN 1C DEB",
        "meta_object_id": "1999-025MC",
        "meta_epoch": "2025-12-08T13:24:59.650272",
        "meta_mean_motion": 13.85619427,
        "meta_eccentricity": 0.0143264,
        "meta_inclination": 99.5762,
        "meta_ra_of_asc_node": 317.2687,
        "meta_arg_of_pericenter": 130.9067,
        "meta_mean_anomaly": 345.6394,
        "meta_ephemeris_type": 0,
        "meta_classification_type": "U",
        "meta_norad_cat_id": 30003,
        "meta_element_set_no": 999,
        "meta_rev_at_epoch": 95430,
        "meta_bstar": 0.00043722,
        "meta_mean_motion_dot": 4.96e-06,
        "meta_mean_motion_ddot": 0,
        "tle_line1": "1 30003U 99025MC  25342.55902373  .00000496  00000+0  43722-3 0  9990",
        "tle_line2": "2 30003  99.5762 317.2687 0143264 130.9067 345.6394 13.85619427954307"
      },
      "geometry": {
        "type": "Point",
        "coordinates": [
          75.77063320607387,
          -79.19477186791481
        ]
      }
    }
  ]
}